{
"type": "FeatureCollection",
"name": "Merged_Data",
"crs": { "type": "name", "properties": { "name": "urn:ogc:def:crs:OGC:1.3:CRS84" } },
"features": [
{ "type": "Feature", "properties": { "Name": "Team 4" }, "geometry": { "type": "Polygon", "coordinates": [ [ [ 13.409736156463623, 52.58475009256702 ], [ 13.409667193994522, 52.584859301749475 ], [ 13.409484028816223, 52.585149361375159 ], [ 13.409516215324402, 52.585294400980359 ], [ 13.412761328803526, 52.587921172774713 ], [ 13.414360284805298, 52.589233102033631 ], [ 13.415374159812927, 52.590023406935586 ], [ 13.416752704538055, 52.590591015712363 ], [ 13.419467210769653, 52.591447549269844 ], [ 13.420631289482117, 52.59183861000335 ], [ 13.421221375465393, 52.592392606734933 ], [ 13.423738523195794, 52.593768157258211 ], [ 13.424472212791443, 52.594168607859956 ], [ 13.42215418686456, 52.595041718836143 ], [ 13.420896860812974, 52.595818089363149 ], [ 13.419193625450134, 52.597658484749616 ], [ 13.419531583786011, 52.597752978017525 ], [ 13.420665772678007, 52.597122051794969 ], [ 13.422797392649272, 52.596300732878063 ], [ 13.425544484303742, 52.595407227319697 ], [ 13.427503383488443, 52.594742994838754 ], [ 13.429710595331017, 52.594000143192517 ], [ 13.430864810469245, 52.593572644716829 ], [ 13.431563973426819, 52.593187742743936 ], [ 13.431454840456865, 52.592249561928469 ], [ 13.430904358355036, 52.590940270092062 ], [ 13.430163860321045, 52.588530777881743 ], [ 13.429528176784515, 52.586567143671743 ], [ 13.428023457527161, 52.58678714026243 ], [ 13.427114188671112, 52.587373792438825 ], [ 13.425250053405762, 52.586402552907686 ], [ 13.42353343963623, 52.585861517525871 ], [ 13.417779243313475, 52.584126195823814 ], [ 13.414505124090255, 52.583130164661753 ], [ 13.412622213360777, 52.585625219857803 ], [ 13.411290331375795, 52.58522048328166 ], [ 13.409736156463623, 52.58475009256702 ] ] ] } },
{ "type": "Feature", "properties": { "Name": "Team 6" }, "geometry": { "type": "Polygon", "coordinates": [ [ [ 13.400739072481798, 52.580431963617713 ], [ 13.402879627104141, 52.580766923699485 ], [ 13.40382993221283, 52.580938114584342 ], [ 13.404138386249542, 52.581058720932646 ], [ 13.404226899147034, 52.581495508714283 ], [ 13.404016751540865, 52.581955612290642 ], [ 13.403269350528717, 52.583284989332213 ], [ 13.40283215045929, 52.584528456066948 ], [ 13.402641713619232, 52.585483440644197 ], [ 13.404128163131759, 52.585696920155868 ], [ 13.40518444776535, 52.585881073137926 ], [ 13.407037854194641, 52.586423737892147 ], [ 13.410464140557792, 52.587456314695743 ], [ 13.412978181111441, 52.588097052841391 ], [ 13.409516215324402, 52.585294400980359 ], [ 13.409484028816223, 52.585149361375159 ], [ 13.409736156463623, 52.58475009256702 ], [ 13.410752406242153, 52.585056682695409 ], [ 13.412622213363647, 52.585625219857036 ], [ 13.414505124092102, 52.583130164661128 ], [ 13.42353343963623, 52.585861517525871 ], [ 13.425250053405762, 52.586402552907686 ], [ 13.427111506462097, 52.587373792438825 ], [ 13.428023457527161, 52.58678714026243 ], [ 13.42953085899353, 52.586568773280163 ], [ 13.428586721423557, 52.58318285026786 ], [ 13.428680598735809, 52.581609594358326 ], [ 13.42280387878418, 52.579971621998652 ], [ 13.418847620487213, 52.578702762535727 ], [ 13.415253460407257, 52.578477835638893 ], [ 13.411779999733199, 52.57715840426178 ], [ 13.411321500417046, 52.576644731693591 ], [ 13.410538136959076, 52.57596688856529 ], [ 13.409411844953581, 52.575188122470024 ], [ 13.40830385684967, 52.574579734424645 ], [ 13.407938788980147, 52.573988626543866 ], [ 13.407554179430008, 52.573926892876443 ], [ 13.406386077404022, 52.576349122504695 ], [ 13.403255939483643, 52.577846241262506 ], [ 13.402164136262599, 52.577620538070391 ], [ 13.401900756730555, 52.577883652492574 ], [ 13.400739072481798, 52.580431963617713 ] ] ] } },
{ "type": "Feature", "properties": { "Name": "Team 2" }, "geometry": { "type": "Polygon", "coordinates": [ [ [ 13.386704027653138, 52.568403024230122 ], [ 13.380821725714384, 52.571578566898637 ], [ 13.382235467433929, 52.572020474718244 ], [ 13.383080363273621, 52.572330201990553 ], [ 13.383740186691284, 52.572727953805213 ], [ 13.384118378162384, 52.57277522734654 ], [ 13.388278770343817, 52.573736970294249 ], [ 13.392455261397828, 52.575557295920248 ], [ 13.394378761794371, 52.577194298972813 ], [ 13.395735025405884, 52.578400414882111 ], [ 13.397634029388428, 52.579417468240479 ], [ 13.398288903265531, 52.579235131087742 ], [ 13.398395776748657, 52.579811896045726 ], [ 13.399573266506195, 52.580307370573706 ], [ 13.400479853153229, 52.580408420612258 ], [ 13.400703321001629, 52.580428509593787 ], [ 13.401416409226897, 52.578889597929361 ], [ 13.402036875486374, 52.577598490790223 ], [ 13.398336768150614, 52.576838931274153 ], [ 13.399350643157959, 52.574217860909471 ], [ 13.398258984088898, 52.570987762979172 ], [ 13.397631347179413, 52.571266524187564 ], [ 13.391765356060603, 52.570735898258619 ], [ 13.391025066375732, 52.571088019407284 ], [ 13.386704027653138, 52.568403024230122 ] ] ] } },
{ "type": "Feature", "properties": { "Name": "Team 3" }, "geometry": { "type": "Polygon", "coordinates": [ [ [ 13.388824370189383, 52.567173278605424 ], [ 13.386704832578829, 52.568403021772298 ], [ 13.387771546840668, 52.569144797073591 ], [ 13.388259708882003, 52.569475737832107 ], [ 13.391024193315673, 52.571086865277806 ], [ 13.391762820059199, 52.570735535107843 ], [ 13.397631347179413, 52.571267339276204 ], [ 13.398259028336497, 52.570987674042215 ], [ 13.399369490890734, 52.574283526743301 ], [ 13.398434747085332, 52.576839785410897 ], [ 13.400645511351058, 52.577306924046525 ], [ 13.403255939483643, 52.577846241262506 ], [ 13.406386077404022, 52.5763483075105 ], [ 13.407553998219271, 52.573926576677337 ], [ 13.407928697694246, 52.573972120422297 ], [ 13.408303397169249, 52.574579365834438 ], [ 13.409277615804172, 52.575095517822746 ], [ 13.410540819168091, 52.57596525856269 ], [ 13.411297202110518, 52.574830762046105 ], [ 13.411296531559799, 52.574521661306932 ], [ 13.412158191204071, 52.573133852552189 ], [ 13.41342955827713, 52.57359028039005 ], [ 13.414102792739868, 52.572670084400698 ], [ 13.414067924022675, 52.57249321546567 ], [ 13.414151072502136, 52.572087310788419 ], [ 13.410526067018509, 52.571156487080145 ], [ 13.410005527498186, 52.570857925695861 ], [ 13.409921228885651, 52.57091929504287 ], [ 13.409061190641722, 52.570547316194848 ], [ 13.407630622386932, 52.570168586015399 ], [ 13.406630158424377, 52.569968883838641 ], [ 13.405018679843607, 52.569539188669211 ], [ 13.404179032503976, 52.569346297178697 ], [ 13.403652906417847, 52.569325755138209 ], [ 13.403445035219193, 52.569386889450783 ], [ 13.401780724525452, 52.569183923204918 ], [ 13.401504456996918, 52.569213267780469 ], [ 13.400471806526184, 52.569154578609727 ], [ 13.400187492370605, 52.569232830819942 ], [ 13.397486507892609, 52.569324124888709 ], [ 13.396799862384569, 52.568792660321435 ], [ 13.392148911952972, 52.568269340757354 ], [ 13.389057666063309, 52.567378378910007 ], [ 13.388824370189383, 52.567173278605424 ] ] ] } },
{ "type": "Feature", "properties": { "Name": "Team 2" }, "geometry": { "type": "Polygon", "coordinates": [ [ [ 13.410012981932653, 52.570852701153427 ], [ 13.410527408123016, 52.571156487080145 ], [ 13.414151072502136, 52.572087310788419 ], [ 13.414067924022675, 52.57249321546567 ], [ 13.414102792739868, 52.572669269338121 ], [ 13.41342955827713, 52.57359028039005 ], [ 13.412158191204071, 52.573133852552189 ], [ 13.411296727423348, 52.574509347830286 ], [ 13.411297202110291, 52.574832392090343 ], [ 13.410538136959076, 52.57596688856529 ], [ 13.411291053605908, 52.576618497956787 ], [ 13.411779999732971, 52.57715840426215 ], [ 13.415256142616272, 52.578478650593524 ], [ 13.418850302696228, 52.578703577486152 ], [ 13.42280387878418, 52.579971621998652 ], [ 13.428679912706485, 52.581609857053962 ], [ 13.42927873134613, 52.57839063540834 ], [ 13.428559899330139, 52.577758224807695 ], [ 13.425883092505813, 52.575580320962473 ], [ 13.421932729280172, 52.573279513156109 ], [ 13.418942540535681, 52.571119208584832 ], [ 13.415507221195043, 52.569126162751303 ], [ 13.412815253840677, 52.567580885228921 ], [ 13.412262797355652, 52.567167251720747 ], [ 13.412127561168205, 52.567709323656373 ], [ 13.411946296691895, 52.56823510468044 ], [ 13.411527958692858, 52.569008813054069 ], [ 13.411042075744689, 52.5697902484807 ], [ 13.410507592455104, 52.570368174665361 ], [ 13.410012981932653, 52.570852701153427 ] ] ] } },
{ "type": "Feature", "properties": { "Name": "Team 5" }, "geometry": { "type": "Polygon", "coordinates": [ [ [ 13.398594984555416, 52.558493988973879 ], [ 13.401287198066711, 52.560448148366277 ], [ 13.402853163055397, 52.561332008311894 ], [ 13.403593897819519, 52.561775419973543 ], [ 13.40618624114353, 52.563406727931181 ], [ 13.40756893157959, 52.564168972904099 ], [ 13.412262835708162, 52.567167091378906 ], [ 13.411946296691895, 52.56823510468044 ], [ 13.411195278167725, 52.569624089776596 ], [ 13.410300635925552, 52.570595485032698 ], [ 13.409921228885651, 52.57091929504287 ], [ 13.409055891371196, 52.570545172065522 ], [ 13.407630622386932, 52.570168586015399 ], [ 13.406630086327141, 52.569968833817398 ], [ 13.405078848179585, 52.569552718892055 ], [ 13.404119995015577, 52.569341360888615 ], [ 13.403652906417847, 52.569325755138209 ], [ 13.403445035219193, 52.569386889450783 ], [ 13.401780724525452, 52.569183923204918 ], [ 13.401504456996918, 52.569213267780469 ], [ 13.400471806526184, 52.569154578609727 ], [ 13.400187492370605, 52.569232830819942 ], [ 13.398497700691223, 52.569283368631488 ], [ 13.397486800707554, 52.569324635441035 ], [ 13.396798996317727, 52.568793214961204 ], [ 13.392147573411108, 52.568268873775679 ], [ 13.389056324958801, 52.567379194070924 ], [ 13.388790786266327, 52.567152578750893 ], [ 13.392105673774807, 52.56518671187456 ], [ 13.393390774726868, 52.564403755803113 ], [ 13.395950764456671, 52.562045415705683 ], [ 13.397054672241211, 52.558341389108591 ], [ 13.39783251285553, 52.558574572550555 ], [ 13.398594984555416, 52.558493988973879 ] ] ] } }
]
}
